start=new Date('2023-04-05T00:00:00.000Z').valueOf();
sats=[{"LAUNCH_DATE":"2021-01-20","RCS_SIZE":"LARGE","REF_FRAME":"TEME","PERIOD":"95.595","TLE_LINE1":"1 47397U 21005BA  23094.50215243  .00015617  00000-0  10663-2 0  9996","COUNTRY_CODE":"US","SITE":"AFETR","OBJECT_TYPE":"PAYLOAD","ELEMENT_SET_NO":"999","SEMIMAJOR_AXIS":"6925.490","MEAN_MOTION_DDOT":"0.0000000000000","ECCENTRICITY":"0.00008140","CENTER_NAME":"EARTH","EPOCH":"2023-04-04T12:03:05.969952","NORAD_CAT_ID":"47397","OBJECT_ID":"2021-005BA","MEAN_MOTION":"15.06353723","APOAPSIS":"547.919","PERIAPSIS":"546.792","OBJECT_NAME":"STARLINK-2119","MEAN_MOTION_DOT":"0.00015617","RA_OF_ASC_NODE":"185.8812","ARG_OF_PERICENTER":"76.5387","MEAN_ANOMALY":"283.5693","FILE":"3879974","MEAN_ELEMENT_THEORY":"SGP4","TLE_LINE2":"2 47397  53.0529 185.8812 0000814  76.5387 283.5693 15.06353723121744","INCLINATION":"53.0529","CLASSIFICATION_TYPE":"U","TIME_SYSTEM":"UTC","GP_ID":"229463630","BSTAR":"0.00106630000000","DECAY_DATE":null,"REV_AT_EPOCH":"12174","EPHEMERIS_TYPE":"0"},{"OBJECT_ID":"2021-005BB","NORAD_CAT_ID":"47398","ECCENTRICITY":"0.00012420","CENTER_NAME":"EARTH","EPOCH":"2023-04-04T16:11:16.202976","SEMIMAJOR_AXIS":"6925.385","MEAN_MOTION_DDOT":"0.0000000000000","OBJECT_TYPE":"PAYLOAD","ELEMENT_SET_NO":"999","SITE":"AFETR","COUNTRY_CODE":"US","PERIOD":"95.593","TLE_LINE1":"1 47398U 21005BB  23094.67449309  .00013160  00000-0  90097-3 0  9998","RCS_SIZE":"LARGE","REF_FRAME":"TEME","LAUNCH_DATE":"2021-01-20","REV_AT_EPOCH":"12218","EPHEMERIS_TYPE":"0","DECAY_DATE":null,"BSTAR":"0.00090097000000","TIME_SYSTEM":"UTC","GP_ID":"229494739","CLASSIFICATION_TYPE":"U","INCLINATION":"53.0518","MEAN_ELEMENT_THEORY":"SGP4","TLE_LINE2":"2 47398  53.0518 155.1033 0001242  82.0638 278.0492 15.06388070122183","FILE":"3880211","MEAN_ANOMALY":"278.0492","ARG_OF_PERICENTER":"82.0638","MEAN_MOTION_DOT":"0.00013160","RA_OF_ASC_NODE":"155.1033","PERIAPSIS":"546.390","OBJECT_NAME":"STARLINK-2120","APOAPSIS":"548.110","MEAN_MOTION":"15.06388070"},{"RCS_SIZE":"LARGE","REF_FRAME":"TEME","LAUNCH_DATE":"2021-01-20","PERIOD":"95.595","TLE_LINE1":"1 47399U 21005BC  23094.44503534  .00024277  00000-0  16450-2 0  9996","COUNTRY_CODE":"US","OBJECT_TYPE":"PAYLOAD","ELEMENT_SET_NO":"999","SITE":"AFETR","ECCENTRICITY":"0.00011450","CENTER_NAME":"EARTH","EPOCH":"2023-04-04T10:40:51.053376","SEMIMAJOR_AXIS":"6925.481","MEAN_MOTION_DDOT":"0.0000000000000","NORAD_CAT_ID":"47399","OBJECT_ID":"2021-005BC","MEAN_MOTION":"15.06356948","OBJECT_NAME":"STARLINK-2121","PERIAPSIS":"546.553","APOAPSIS":"548.138","MEAN_MOTION_DOT":"0.00024277","RA_OF_ASC_NODE":"166.3754","FILE":"3879974","MEAN_ANOMALY":"302.4547","ARG_OF_PERICENTER":"57.6553","CLASSIFICATION_TYPE":"U","INCLINATION":"53.0537","MEAN_ELEMENT_THEORY":"SGP4","TLE_LINE2":"2 47399  53.0537 166.3754 0001145  57.6553 302.4547 15.06356948122008","BSTAR":"0.00164500000000","GP_ID":"229464632","TIME_SYSTEM":"UTC","DECAY_DATE":null,"EPHEMERIS_TYPE":"0","REV_AT_EPOCH":"12200"},{"APOAPSIS":"548.135","OBJECT_NAME":"STARLINK-2122","PERIAPSIS":"546.273","MEAN_MOTION":"15.06403062","ARG_OF_PERICENTER":"76.4415","MEAN_ANOMALY":"283.6724","FILE":"3880211","RA_OF_ASC_NODE":"145.4226","MEAN_MOTION_DOT":"0.00021799","GP_ID":"229495739","TIME_SYSTEM":"UTC","BSTAR":"0.00147770000000","MEAN_ELEMENT_THEORY":"SGP4","TLE_LINE2":"2 47400  53.0511 145.4226 0001344  76.4415 283.6724 15.06403062122313","INCLINATION":"53.0511","CLASSIFICATION_TYPE":"U","EPHEMERIS_TYPE":"0","REV_AT_EPOCH":"12231","DECAY_DATE":null,"TLE_LINE1":"1 47400U 21005BD  23094.60537416  .00021799  00000-0  14777-2 0  9999","PERIOD":"95.592","LAUNCH_DATE":"2021-01-20","REF_FRAME":"TEME","RCS_SIZE":"LARGE","SITE":"AFETR","ELEMENT_SET_NO":"999","OBJECT_TYPE":"PAYLOAD","COUNTRY_CODE":"US","NORAD_CAT_ID":"47400","MEAN_MOTION_DDOT":"0.0000000000000","SEMIMAJOR_AXIS":"6925.339","CENTER_NAME":"EARTH","EPOCH":"2023-04-04T14:31:44.327424","ECCENTRICITY":"0.00013440","OBJECT_ID":"2021-005BD"},{"OBJECT_TYPE":"PAYLOAD","ELEMENT_SET_NO":"999","SITE":"AFETR","COUNTRY_CODE":"US","PERIOD":"95.596","TLE_LINE1":"1 47401U 21005BE  23094.49014911  .00015272  00000-0  10435-2 0  9993","RCS_SIZE":"LARGE","REF_FRAME":"TEME","LAUNCH_DATE":"2021-01-20","OBJECT_ID":"2021-005BE","NORAD_CAT_ID":"47401","ECCENTRICITY":"0.00012840","CENTER_NAME":"EARTH","EPOCH":"2023-04-04T11:45:48.883104","SEMIMAJOR_AXIS":"6925.524","MEAN_MOTION_DDOT":"0.0000000000000","FILE":"3879974","MEAN_ANOMALY":"267.0025","ARG_OF_PERICENTER":"93.1111","MEAN_MOTION_DOT":"0.00015272","RA_OF_ASC_NODE":"155.9307","OBJECT_NAME":"STARLINK-2123","PERIAPSIS":"546.499","APOAPSIS":"548.278","MEAN_MOTION":"15.06342918","EPHEMERIS_TYPE":"0","REV_AT_EPOCH":"12216","DECAY_DATE":null,"BSTAR":"0.00104350000000","TIME_SYSTEM":"UTC","GP_ID":"229463130","INCLINATION":"53.0518","CLASSIFICATION_TYPE":"U","MEAN_ELEMENT_THEORY":"SGP4","TLE_LINE2":"2 47401  53.0518 155.9307 0001284  93.1111 267.0025 15.06342918122164"},{"LAUNCH_DATE":"2021-01-20","RCS_SIZE":"LARGE","REF_FRAME":"TEME","PERIOD":"95.593","TLE_LINE1":"1 47402U 21005BF  23094.44226957  .00020011  00000-0  13590-2 0  9996","COUNTRY_CODE":"US","SITE":"AFETR","OBJECT_TYPE":"PAYLOAD","ELEMENT_SET_NO":"999","SEMIMAJOR_AXIS":"6925.390","MEAN_MOTION_DDOT":"0.0000000000000","ECCENTRICITY":"0.00008710","EPOCH":"2023-04-04T10:36:52.090848","CENTER_NAME":"EARTH","NORAD_CAT_ID":"47402","OBJECT_ID":"2021-005BF","MEAN_MOTION":"15.06386549","APOAPSIS":"547.858","OBJECT_NAME":"STARLINK-2124","PERIAPSIS":"546.652","MEAN_MOTION_DOT":"0.00020011","RA_OF_ASC_NODE":"156.1454","ARG_OF_PERICENTER":"93.8170","MEAN_ANOMALY":"266.2918","FILE":"3879974","MEAN_ELEMENT_THEORY":"SGP4","TLE_LINE2":"2 47402  53.0517 156.1454 0000871  93.8170 266.2918 15.06386549122152","CLASSIFICATION_TYPE":"U","INCLINATION":"53.0517","TIME_SYSTEM":"UTC","GP_ID":"229464382","BSTAR":"0.00135900000000","DECAY_DATE":null,"EPHEMERIS_TYPE":"0","REV_AT_EPOCH":"12215"},{"LAUNCH_DATE":"2021-01-20","REF_FRAME":"TEME","RCS_SIZE":"LARGE","TLE_LINE1":"1 47403U 21005BG  23094.38328724  .00013717  00000-0  93857-3 0  9995","PERIOD":"95.594","COUNTRY_CODE":"US","SITE":"AFETR","ELEMENT_SET_NO":"999","OBJECT_TYPE":"PAYLOAD","MEAN_MOTION_DDOT":"0.0000000000000","SEMIMAJOR_AXIS":"6925.420","CENTER_NAME":"EARTH","EPOCH":"2023-04-04T09:11:56.017536","ECCENTRICITY":"0.00009660","NORAD_CAT_ID":"47403","OBJECT_ID":"2021-005BG","MEAN_MOTION":"15.06376698","APOAPSIS":"547.954","PERIAPSIS":"546.616","OBJECT_NAME":"STARLINK-2127","RA_OF_ASC_NODE":"156.4098","MEAN_MOTION_DOT":"0.00013717","ARG_OF_PERICENTER":"97.1293","MEAN_ANOMALY":"262.9806","FILE":"3879974","TLE_LINE2":"2 47403  53.0538 156.4098 0000966  97.1293 262.9806 15.06376698122143","MEAN_ELEMENT_THEORY":"SGP4","CLASSIFICATION_TYPE":"U","INCLINATION":"53.0538","TIME_SYSTEM":"UTC","GP_ID":"229464132","BSTAR":"0.00093857000000","DECAY_DATE":null,"EPHEMERIS_TYPE":"0","REV_AT_EPOCH":"12214"},{"COUNTRY_CODE":"US","ELEMENT_SET_NO":"999","OBJECT_TYPE":"PAYLOAD","SITE":"AFETR","REF_FRAME":"TEME","RCS_SIZE":"LARGE","LAUNCH_DATE":"2021-01-20","TLE_LINE1":"1 47404U 21005BH  23094.64496623  .00027288  00000-0  18469-2 0  9992","PERIOD":"95.596","OBJECT_ID":"2021-005BH","EPOCH":"2023-04-04T15:28:45.082272","CENTER_NAME":"EARTH","ECCENTRICITY":"0.00014070","MEAN_MOTION_DDOT":"0.0000000000000","SEMIMAJOR_AXIS":"6925.543","NORAD_CAT_ID":"47404","RA_OF_ASC_NODE":"155.2324","MEAN_MOTION_DOT":"0.00027288","FILE":"3880211","ARG_OF_PERICENTER":"84.4303","MEAN_ANOMALY":"275.6846","MEAN_MOTION":"15.06336535","OBJECT_NAME":"STARLINK-2128","PERIAPSIS":"546.434","APOAPSIS":"548.382","DECAY_DATE":null,"EPHEMERIS_TYPE":"0","REV_AT_EPOCH":"12218","INCLINATION":"53.0529","CLASSIFICATION_TYPE":"U","TLE_LINE2":"2 47404  53.0529 155.2324 0001407  84.4303 275.6846 15.06336535122180","MEAN_ELEMENT_THEORY":"SGP4","BSTAR":"0.00184690000000","TIME_SYSTEM":"UTC","GP_ID":"229495239"},{"PERIAPSIS":"546.518","OBJECT_NAME":"STARLINK-2130","APOAPSIS":"548.001","MEAN_MOTION":"15.06385012","FILE":"3880211","ARG_OF_PERICENTER":"72.5484","MEAN_ANOMALY":"287.5622","MEAN_MOTION_DOT":"0.00032942","RA_OF_ASC_NODE":"184.7171","BSTAR":"0.00222100000000","GP_ID":"229494490","TIME_SYSTEM":"UTC","INCLINATION":"53.0520","CLASSIFICATION_TYPE":"U","TLE_LINE2":"2 47405  53.0520 184.7171 0001070  72.5484 287.5622 15.06385012121775","MEAN_ELEMENT_THEORY":"SGP4","REV_AT_EPOCH":"12177","EPHEMERIS_TYPE":"0","DECAY_DATE":null,"PERIOD":"95.593","TLE_LINE1":"1 47405U 21005BJ  23094.76017980  .00032942  00000-0  22210-2 0  9993","RCS_SIZE":"LARGE","REF_FRAME":"TEME","LAUNCH_DATE":"2021-01-20","OBJECT_TYPE":"PAYLOAD","ELEMENT_SET_NO":"999","SITE":"AFETR","COUNTRY_CODE":"US","NORAD_CAT_ID":"47405","ECCENTRICITY":"0.00010700","EPOCH":"2023-04-04T18:14:39.534720","CENTER_NAME":"EARTH","SEMIMAJOR_AXIS":"6925.394","MEAN_MOTION_DDOT":"0.0000000000000","OBJECT_ID":"2021-005BJ"},{"OBJECT_ID":"2021-005BK","NORAD_CAT_ID":"47406","SEMIMAJOR_AXIS":"6925.404","MEAN_MOTION_DDOT":"0.0000000000000","ECCENTRICITY":"0.00014240","CENTER_NAME":"EARTH","EPOCH":"2023-04-04T12:33:38.190816","SITE":"AFETR","OBJECT_TYPE":"PAYLOAD","ELEMENT_SET_NO":"999","COUNTRY_CODE":"US","PERIOD":"95.593","TLE_LINE1":"1 47406U 21005BK  23094.52335869  .00029803  00000-0  20122-2 0  9999","LAUNCH_DATE":"2021-01-20","RCS_SIZE":"LARGE","REF_FRAME":"TEME","EPHEMERIS_TYPE":"0","REV_AT_EPOCH":"12216","DECAY_DATE":null,"TIME_SYSTEM":"UTC","GP_ID":"229463882","BSTAR":"0.00201220000000","TLE_LINE2":"2 47406  53.0537 155.7780 0001424  72.2829 287.8315 15.06381823122163","MEAN_ELEMENT_THEORY":"SGP4","INCLINATION":"53.0537","CLASSIFICATION_TYPE":"U","MEAN_ANOMALY":"287.8315","ARG_OF_PERICENTER":"72.2829","FILE":"3879974","MEAN_MOTION_DOT":"0.00029803","RA_OF_ASC_NODE":"155.7780","APOAPSIS":"548.255","PERIAPSIS":"546.283","OBJECT_NAME":"STARLINK-2133","MEAN_MOTION":"15.06381823"}];
